{
  "norad_id": 53264,
  "name": "STARLINK-3950",
  "history": [
    {
      "epoch": "2026-04-11T06:18:38.296800Z",
      "apogee_km": 540.7636062479232,
      "perigee_km": 538.7352819425132,
      "latitude_deg": 4.133819978871302e-06,
      "longitude_deg": 113.74848671935004,
      "height_km": 540.69319378583,
      "semi_major_axis_km": 6917.8864440952175,
      "eccentricity": 0.0001466,
      "inclination_deg": 53.2177,
      "raan_deg": 47.893,
      "arg_perigee_deg": 92.7218,
      "mean_anomaly_deg": 267.3942,
      "mean_motion_rev_day": 15.08838019
    },
    {
      "epoch": "2026-04-13T02:49:26.461632Z",
      "apogee_km": 540.8089179793587,
      "perigee_km": 538.7115498959738,
      "latitude_deg": 2.9041254557471553e-05,
      "longitude_deg": 155.8948173272164,
      "height_km": 540.7113949234065,
      "semi_major_axis_km": 6917.897233937666,
      "eccentricity": 0.00015159,
      "inclination_deg": 53.2197,
      "raan_deg": 39.5681,
      "arg_perigee_deg": 93.03,
      "mean_anomaly_deg": 267.0866,
      "mean_motion_rev_day": 15.08834489
    },
    {
      "epoch": "2026-04-14T12:12:32.529312Z",
      "apogee_km": 540.7932869535307,
      "perigee_km": 538.7190258695127,
      "latitude_deg": -6.151157434587749e-05,
      "longitude_deg": 7.504395289645625,
      "height_km": 540.7029383574735,
      "semi_major_axis_km": 6917.893156411522,
      "eccentricity": 0.00014992,
      "inclination_deg": 53.2199,
      "raan_deg": 33.3241,
      "arg_perigee_deg": 92.8183,
      "mean_anomaly_deg": 267.298,
      "mean_motion_rev_day": 15.08835823
    },
    {
      "epoch": "2026-04-15T12:03:19.698912Z",
      "apogee_km": 540.7597024077113,
      "perigee_km": 538.7474264003376,
      "latitude_deg": 1.7505601426764154e-05,
      "longitude_deg": 4.366577455783979,
      "height_km": 540.6380468507544,
      "semi_major_axis_km": 6917.890564404024,
      "eccentricity": 0.00014544,
      "inclination_deg": 53.2177,
      "raan_deg": 28.8621,
      "arg_perigee_deg": 89.3667,
      "mean_anomaly_deg": 270.7492,
      "mean_motion_rev_day": 15.08836671
    },
    {
      "epoch": "2026-04-16T18:15:39.429792Z",
      "apogee_km": 540.6693224791034,
      "perigee_km": 538.8319315253702,
      "latitude_deg": -5.34191317274723e-05,
      "longitude_deg": -95.60617985877992,
      "height_km": 540.7334676265248,
      "semi_major_axis_km": 6917.8876270022365,
      "eccentricity": 0.0001328,
      "inclination_deg": 53.2186,
      "raan_deg": 23.2121,
      "arg_perigee_deg": 95.4308,
      "mean_anomaly_deg": 264.6835,
      "mean_motion_rev_day": 15.08837632
    },
    {
      "epoch": "2026-04-17T11:44:53.746080Z",
      "apogee_km": 540.847220756862,
      "perigee_km": 538.6451201860382,
      "latitude_deg": 4.110426486157921e-05,
      "longitude_deg": -1.9044380673380679,
      "height_km": 540.6616203566023,
      "semi_major_axis_km": 6917.88317047145,
      "eccentricity": 0.00015916,
      "inclination_deg": 53.2174,
      "raan_deg": 19.9416,
      "arg_perigee_deg": 91.0447,
      "mean_anomaly_deg": 269.0728,
      "mean_motion_rev_day": 15.0883909
    }
  ]
}